start=new Date('2021-11-24T00:00:00.000Z').valueOf();
sats=[{"OBJECT_TYPE":"PAYLOAD","GP_ID":"190365167","DECAY_DATE":null,"RCS_SIZE":"LARGE","INCLINATION":"53.0570","EPOCH":"2021-11-23T22:26:38.941152","PERIOD":"95.592","ELEMENT_SET_NO":"999","COUNTRY_CODE":"US","SITE":"AFETR","TIME_SYSTEM":"UTC","TLE_LINE2":"2 48662  53.0570 305.0454 0001497  58.2782 301.8352 15.06397099 27709","MEAN_MOTION_DOT":"-0.00000127","MEAN_ELEMENT_THEORY":"SGP4","MEAN_ANOMALY":"301.8352","REF_FRAME":"TEME","ARG_OF_PERICENTER":"58.2782","TLE_LINE1":"1 48662U 21044AA  21327.93517293 -.00000127  00000-0  10375-4 0  9992","OBJECT_ID":"2021-044AA","REV_AT_EPOCH":"2770","EPHEMERIS_TYPE":"0","CENTER_NAME":"EARTH","BSTAR":"0.00001037500000","MEAN_MOTION_DDOT":"0.0000000000000","APOAPSIS":"548.259","LAUNCH_DATE":"2021-05-26","RA_OF_ASC_NODE":"305.0454","OBJECT_NAME":"STARLINK-2726","CLASSIFICATION_TYPE":"U","MEAN_MOTION":"15.06397099","PERIAPSIS":"546.186","SEMIMAJOR_AXIS":"6925.357","NORAD_CAT_ID":"48662","FILE":"3222563","ECCENTRICITY":"0.00014970"},{"CENTER_NAME":"EARTH","MEAN_MOTION_DDOT":"0.0000000000000","BSTAR":"0.00012947000000","APOAPSIS":"548.426","TLE_LINE1":"1 48663U 21044AB  21327.66609894  .00001647  00000-0  12947-3 0  9995","OBJECT_ID":"2021-044AB","EPHEMERIS_TYPE":"0","REV_AT_EPOCH":"2766","ARG_OF_PERICENTER":"61.7815","MEAN_ANOMALY":"298.3348","REF_FRAME":"TEME","NORAD_CAT_ID":"48663","FILE":"3222563","ECCENTRICITY":"0.00017260","PERIAPSIS":"546.036","SEMIMAJOR_AXIS":"6925.366","RA_OF_ASC_NODE":"306.2470","OBJECT_NAME":"STARLINK-2667","CLASSIFICATION_TYPE":"U","MEAN_MOTION":"15.06394271","LAUNCH_DATE":"2021-05-26","RCS_SIZE":"LARGE","DECAY_DATE":null,"INCLINATION":"53.0559","OBJECT_TYPE":"PAYLOAD","GP_ID":"190364752","MEAN_MOTION_DOT":"0.00001647","TLE_LINE2":"2 48663  53.0559 306.2470 0001726  61.7815 298.3348 15.06394271 27668","MEAN_ELEMENT_THEORY":"SGP4","COUNTRY_CODE":"US","SITE":"AFETR","TIME_SYSTEM":"UTC","PERIOD":"95.593","ELEMENT_SET_NO":"999","EPOCH":"2021-11-23T15:59:10.948416"},{"GP_ID":"190365512","OBJECT_TYPE":"PAYLOAD","RCS_SIZE":"LARGE","DECAY_DATE":null,"INCLINATION":"53.0569","PERIOD":"95.593","ELEMENT_SET_NO":"999","EPOCH":"2021-11-23T15:53:52.958400","MEAN_MOTION_DOT":"-0.00000533","TLE_LINE2":"2 48664  53.0569 306.2710 0001804  64.5996 295.5180 15.06392084 27668","MEAN_ELEMENT_THEORY":"SGP4","SITE":"AFETR","COUNTRY_CODE":"US","TIME_SYSTEM":"UTC","ARG_OF_PERICENTER":"64.5996","MEAN_ANOMALY":"295.5180","REF_FRAME":"TEME","CENTER_NAME":"EARTH","APOAPSIS":"548.487","MEAN_MOTION_DDOT":"0.0000000000000","BSTAR":"-0.00001689600000","OBJECT_ID":"2021-044AC","TLE_LINE1":"1 48664U 21044AC  21327.66241850 -.00000533  00000-0 -16896-4 0  9993","REV_AT_EPOCH":"2766","EPHEMERIS_TYPE":"0","OBJECT_NAME":"STARLINK-2709","RA_OF_ASC_NODE":"306.2710","MEAN_MOTION":"15.06392084","CLASSIFICATION_TYPE":"U","LAUNCH_DATE":"2021-05-26","ECCENTRICITY":"0.00018040","NORAD_CAT_ID":"48664","FILE":"3222563","SEMIMAJOR_AXIS":"6925.373","PERIAPSIS":"545.988"},{"GP_ID":"190364914","OBJECT_TYPE":"PAYLOAD","DECAY_DATE":null,"INCLINATION":"53.0559","RCS_SIZE":"LARGE","EPOCH":"2021-11-23T22:35:54.248640","ELEMENT_SET_NO":"999","PERIOD":"95.592","TIME_SYSTEM":"UTC","SITE":"AFETR","COUNTRY_CODE":"US","MEAN_ELEMENT_THEORY":"SGP4","TLE_LINE2":"2 48665  53.0559 305.0163 0001572  68.6793 291.4363 15.06401276 27706","MEAN_MOTION_DOT":"0.00000250","REF_FRAME":"TEME","MEAN_ANOMALY":"291.4363","ARG_OF_PERICENTER":"68.6793","EPHEMERIS_TYPE":"0","REV_AT_EPOCH":"2770","OBJECT_ID":"2021-044AD","TLE_LINE1":"1 48665U 21044AD  21327.94160010  .00000250  00000-0  35702-4 0  9994","APOAPSIS":"548.298","MEAN_MOTION_DDOT":"0.0000000000000","BSTAR":"0.00003570200000","CENTER_NAME":"EARTH","LAUNCH_DATE":"2021-05-26","MEAN_MOTION":"15.06401276","CLASSIFICATION_TYPE":"U","RA_OF_ASC_NODE":"305.0163","OBJECT_NAME":"STARLINK-2653","SEMIMAJOR_AXIS":"6925.345","PERIAPSIS":"546.121","ECCENTRICITY":"0.00015720","FILE":"3222563","NORAD_CAT_ID":"48665"},{"RCS_SIZE":"LARGE","DECAY_DATE":null,"INCLINATION":"53.0543","GP_ID":"190364879","OBJECT_TYPE":"PAYLOAD","SITE":"AFETR","COUNTRY_CODE":"US","TIME_SYSTEM":"UTC","TLE_LINE2":"2 48666  53.0543 306.3550 0001694  66.0214 294.0952 15.06398714 27658","MEAN_MOTION_DOT":"-0.00000155","MEAN_ELEMENT_THEORY":"SGP4","EPOCH":"2021-11-23T15:25:58.643904","PERIOD":"95.592","ELEMENT_SET_NO":"999","OBJECT_ID":"2021-044AE","TLE_LINE1":"1 48666U 21044AE  21327.64303986 -.00000155  00000-0  85144-5 0  9994","EPHEMERIS_TYPE":"0","REV_AT_EPOCH":"2765","CENTER_NAME":"EARTH","APOAPSIS":"548.391","BSTAR":"0.00000851440000","MEAN_MOTION_DDOT":"0.0000000000000","MEAN_ANOMALY":"294.0952","REF_FRAME":"TEME","ARG_OF_PERICENTER":"66.0214","SEMIMAJOR_AXIS":"6925.352","PERIAPSIS":"546.044","ECCENTRICITY":"0.00016940","NORAD_CAT_ID":"48666","FILE":"3222563","LAUNCH_DATE":"2021-05-26","RA_OF_ASC_NODE":"306.3550","OBJECT_NAME":"STARLINK-2666","MEAN_MOTION":"15.06398714","CLASSIFICATION_TYPE":"U"},{"PERIOD":"95.592","ELEMENT_SET_NO":"999","EPOCH":"2021-11-23T22:10:43.186080","MEAN_MOTION_DOT":"0.00002496","TLE_LINE2":"2 48667  53.0553 305.0878 0001749  68.1068 292.0107 15.06406602 27702","MEAN_ELEMENT_THEORY":"SGP4","SITE":"AFETR","COUNTRY_CODE":"US","TIME_SYSTEM":"UTC","GP_ID":"190365041","OBJECT_TYPE":"PAYLOAD","DECAY_DATE":null,"RCS_SIZE":"LARGE","INCLINATION":"53.0553","OBJECT_NAME":"STARLINK-2735","RA_OF_ASC_NODE":"305.0878","MEAN_MOTION":"15.06406602","CLASSIFICATION_TYPE":"U","LAUNCH_DATE":"2021-05-26","ECCENTRICITY":"0.00017490","FILE":"3222563","NORAD_CAT_ID":"48667","SEMIMAJOR_AXIS":"6925.328","PERIAPSIS":"545.982","ARG_OF_PERICENTER":"68.1068","MEAN_ANOMALY":"292.0107","REF_FRAME":"TEME","CENTER_NAME":"EARTH","APOAPSIS":"548.405","MEAN_MOTION_DDOT":"0.0000000000000","BSTAR":"0.00018639000000","OBJECT_ID":"2021-044AF","TLE_LINE1":"1 48667U 21044AF  21327.92411095  .00002496  00000-0  18639-3 0  9999","EPHEMERIS_TYPE":"0","REV_AT_EPOCH":"2770"},{"PERIOD":"95.592","ELEMENT_SET_NO":"999","EPOCH":"2021-11-23T22:05:25.039680","TLE_LINE2":"2 48668  53.0563 305.1090 0001693  61.2826 298.8333 15.06394973 27707","MEAN_MOTION_DOT":"0.00000084","MEAN_ELEMENT_THEORY":"SGP4","SITE":"AFETR","COUNTRY_CODE":"US","TIME_SYSTEM":"UTC","GP_ID":"190365295","OBJECT_TYPE":"PAYLOAD","DECAY_DATE":null,"RCS_SIZE":"LARGE","INCLINATION":"53.0563","RA_OF_ASC_NODE":"305.1090","OBJECT_NAME":"STARLINK-2738","MEAN_MOTION":"15.06394973","CLASSIFICATION_TYPE":"U","LAUNCH_DATE":"2021-05-26","ECCENTRICITY":"0.00016930","FILE":"3222563","NORAD_CAT_ID":"48668","SEMIMAJOR_AXIS":"6925.364","PERIAPSIS":"546.057","ARG_OF_PERICENTER":"61.2826","MEAN_ANOMALY":"298.8333","REF_FRAME":"TEME","CENTER_NAME":"EARTH","APOAPSIS":"548.401","MEAN_MOTION_DDOT":"0.0000000000000","BSTAR":"0.00002452400000","OBJECT_ID":"2021-044AG","TLE_LINE1":"1 48668U 21044AG  21327.92042870  .00000084  00000-0  24524-4 0  9993","EPHEMERIS_TYPE":"0","REV_AT_EPOCH":"2770"},{"MEAN_ANOMALY":"302.6025","REF_FRAME":"TEME","ARG_OF_PERICENTER":"57.5166","OBJECT_ID":"2021-044AH","TLE_LINE1":"1 48669U 21044AH  21327.65134976 -.00000297  00000-0 -10062-5 0  9994","REV_AT_EPOCH":"2765","EPHEMERIS_TYPE":"0","CENTER_NAME":"EARTH","APOAPSIS":"548.657","MEAN_MOTION_DDOT":"0.0000000000000","BSTAR":"-0.00000100620000","LAUNCH_DATE":"2021-05-26","OBJECT_NAME":"STARLINK-2707","RA_OF_ASC_NODE":"306.3262","MEAN_MOTION":"15.06401467","CLASSIFICATION_TYPE":"U","SEMIMAJOR_AXIS":"6925.344","PERIAPSIS":"545.761","ECCENTRICITY":"0.00020910","FILE":"3222563","NORAD_CAT_ID":"48669","GP_ID":"190364626","OBJECT_TYPE":"PAYLOAD","RCS_SIZE":"LARGE","DECAY_DATE":null,"INCLINATION":"53.0526","EPOCH":"2021-11-23T15:37:56.619264","PERIOD":"95.592","ELEMENT_SET_NO":"999","SITE":"AFETR","COUNTRY_CODE":"US","TIME_SYSTEM":"UTC","TLE_LINE2":"2 48669  53.0526 306.3262 0002091  57.5166 302.6025 15.06401467 27652","MEAN_MOTION_DOT":"-0.00000297","MEAN_ELEMENT_THEORY":"SGP4"},{"TIME_SYSTEM":"UTC","COUNTRY_CODE":"US","SITE":"AFETR","MEAN_ELEMENT_THEORY":"SGP4","TLE_LINE2":"2 48670  53.0524 306.3423 0001757  63.0431 297.0737 15.06393810 27655","MEAN_MOTION_DOT":"-0.00000306","EPOCH":"2021-11-23T15:32:38.524704","ELEMENT_SET_NO":"999","PERIOD":"95.593","DECAY_DATE":null,"INCLINATION":"53.0524","RCS_SIZE":"LARGE","OBJECT_TYPE":"PAYLOAD","GP_ID":"190365168","PERIAPSIS":"546.016","SEMIMAJOR_AXIS":"6925.368","NORAD_CAT_ID":"48670","FILE":"3222563","ECCENTRICITY":"0.00017570","LAUNCH_DATE":"2021-05-26","CLASSIFICATION_TYPE":"U","MEAN_MOTION":"15.06393810","OBJECT_NAME":"STARLINK-2763","RA_OF_ASC_NODE":"306.3423","REV_AT_EPOCH":"2765","EPHEMERIS_TYPE":"0","TLE_LINE1":"1 48670U 21044AJ  21327.64766811 -.00000306  00000-0 -16149-5 0  9997","OBJECT_ID":"2021-044AJ","BSTAR":"-0.00000161490000","MEAN_MOTION_DDOT":"0.0000000000000","APOAPSIS":"548.449","CENTER_NAME":"EARTH","REF_FRAME":"TEME","MEAN_ANOMALY":"297.0737","ARG_OF_PERICENTER":"63.0431"},{"PERIAPSIS":"545.947","SEMIMAJOR_AXIS":"6925.373","FILE":"3222563","NORAD_CAT_ID":"48671","ECCENTRICITY":"0.00018630","LAUNCH_DATE":"2021-05-26","CLASSIFICATION_TYPE":"U","MEAN_MOTION":"15.06392137","OBJECT_NAME":"STARLINK-2745","RA_OF_ASC_NODE":"305.1626","EPHEMERIS_TYPE":"0","REV_AT_EPOCH":"2769","TLE_LINE1":"1 48671U 21044AK  21327.90938007 -.00000384  00000-0 -68690-5 0  9999","OBJECT_ID":"2021-044AK","BSTAR":"-0.00000686900000","MEAN_MOTION_DDOT":"0.0000000000000","APOAPSIS":"548.528","CENTER_NAME":"EARTH","REF_FRAME":"TEME","MEAN_ANOMALY":"289.1961","ARG_OF_PERICENTER":"70.9230","TIME_SYSTEM":"UTC","COUNTRY_CODE":"US","SITE":"AFETR","MEAN_ELEMENT_THEORY":"SGP4","TLE_LINE2":"2 48671  53.0550 305.1626 0001863  70.9230 289.1961 15.06392137 27695","MEAN_MOTION_DOT":"-0.00000384","EPOCH":"2021-11-23T21:49:30.438048","ELEMENT_SET_NO":"999","PERIOD":"95.593","INCLINATION":"53.0550","DECAY_DATE":null,"RCS_SIZE":"LARGE","OBJECT_TYPE":"PAYLOAD","GP_ID":"190364753"}];
